[{"OBJECT_NAME":"STARLINK-35015","OBJECT_ID":"2025-184L","EPOCH":"2026-03-09T17:40:50.096352","MEAN_MOTION":15.05667546,"ECCENTRICITY":9.939e-5,"INCLINATION":97.6029,"RA_OF_ASC_NODE":122.6408,"ARG_OF_PERICENTER":140.9306,"MEAN_ANOMALY":219.1993,"EPHEMERIS_TYPE":0,"CLASSIFICATION_TYPE":"U","NORAD_CAT_ID":65283,"ELEMENT_SET_NO":999,"REV_AT_EPOCH":3130,"BSTAR":0.00094316005,"MEAN_MOTION_DOT":0.0001358,"MEAN_MOTION_DDOT":0},{"OBJECT_NAME":"COSMOS 2251 DEB","OBJECT_ID":"1993-036AL","EPOCH":"2026-03-09T15:08:47.217120","MEAN_MOTION":15.1034549,"ECCENTRICITY":0.0030621,"INCLINATION":74.0303,"RA_OF_ASC_NODE":257.926,"ARG_OF_PERICENTER":317.2462,"MEAN_ANOMALY":110.0671,"EPHEMERIS_TYPE":0,"CLASSIFICATION_TYPE":"U","NORAD_CAT_ID":33795,"ELEMENT_SET_NO":999,"REV_AT_EPOCH":91331,"BSTAR":0.001367,"MEAN_MOTION_DOT":0.00022707,"MEAN_MOTION_DDOT":0}]
